HAWK-2C                 
1 47502U 21006CT  26068.67595434  .00008129  00000+0  25493-3 0  9997
2 47502  97.2417 114.9961 0006943 184.0877 176.0310 15.33286436284247
STARLINK-34896          
1 66288U 25247Z   26068.61256847  .00027604  00000+0  94151-3 0  9992
2 66288  53.1588 191.6684 0001243  79.1910 280.9231 15.30171297 21020
